OBJECT_NAME,OBJECT_ID,EPOCH,MEAN_MOTION,ECCENTRICITY,INCLINATION,RA_OF_ASC_NODE,ARG_OF_PERICENTER,MEAN_ANOMALY,EPHEMERIS_TYPE,CLASSIFICATION_TYPE,NORAD_CAT_ID,ELEMENT_SET_NO,REV_AT_EPOCH,BSTAR,MEAN_MOTION_DOT,MEAN_MOTION_DDOT
NETSAT-4,2020-068U,2026-07-16T14:32:48.285024,15.44786977,.0004915,97.8603,208.2321,188.4532,171.6633,0,U,46504,999,32031,.22602E-3,.10486E-3,0
NETSAT-3,2020-068V,2026-07-16T13:40:24.462048,15.43637888,.0004019,97.8652,206.3734,204.9315,155.1738,0,U,46505,999,32021,.24996E-3,.11163E-3,0
NETSAT-1,2020-068W,2026-07-16T12:51:41.276160,15.35264310,.0002533,97.8753,200.3150,254.4988,105.5974,0,U,46506,999,31980,.2044E-3,.6909E-4,0
NETSAT-2,2020-068X,2026-07-16T20:40:33.517920,15.47210636,.0002392,97.8614,208.5178,201.1195,158.9955,0,U,46507,999,32032,.28017E-3,.14154E-3,0
GREENCUBE (IO-117),2022-080E,2026-07-16T06:55:09.765408,6.42583343,.000908,70.1408,288.1261,283.0875,76.8771,0,U,53109,999,9393,0,-.3E-7,0
SITRO-AIS 5 (KATYS),2023-091L,2026-07-16T19:57:42.094944,15.30086185,.0010479,97.5042,262.0240,6.6080,353.5297,0,U,57176,999,16887,.22519E-3,.6488E-4,0
SITRO-AIS 6 (CHIRKIN),2023-091AC,2026-07-16T19:33:00.741024,15.26454955,.0011002,97.5050,260.9661,10.9737,349.1739,0,U,57192,999,16880,.20163E-3,.5189E-4,0
SITRO-AIS 8 (ANOKHIN),2023-091AD,2026-07-16T20:39:55.527840,15.32885018,.0009334,97.5038,263.7660,2.1281,357.9999,0,U,57193,999,16899,.26421E-3,.8322E-4,0
SITRO-AIS 7 (FARTUSHNIY),2023-091AE,2026-07-16T19:46:27.685920,15.26128522,.0010976,97.5046,260.7847,12.1825,347.9677,0,U,57194,999,16879,.19644E-3,.5003E-4,0
SITRO-AIS 10 (BURDAEV),2023-091AK,2026-07-16T19:54:57.161664,15.39665465,.0004722,97.5065,269.1017,334.1674,25.9335,0,U,57199,999,16932,.29199E-3,.11444E-3,0
SITRO-AIS 9 (SHCHUKIN),2023-091AM,2026-07-16T20:46:54.744960,15.39150934,.0004998,97.5063,268.8449,334.4028,25.6969,0,U,57201,999,16931,.30362E-3,.11705E-3,0
SITRO-AIS 12 (SMIRENNIY),2023-091AQ,2026-07-16T20:25:15.658752,15.39446190,.0004559,97.5077,269.3153,326.4781,33.6176,0,U,57204,999,16933,.27915E-3,.10857E-3,0
SITRO-AIS 11 (SHEFFER),2023-091AU,2026-07-16T20:32:31.299648,15.39890993,.0004469,97.5075,269.5861,325.9569,34.1389,0,U,57208,999,16935,.29306E-3,.11572E-3,0
SITRO-AIS 25,2024-039R,2026-07-16T20:30:41.456736,14.93648570,.0142908,95.3891,255.4791,223.6520,135.3332,0,U,59066,999,12915,.13946E-3,.1766E-4,0
SITRO-AIS 26,2024-039S,2026-07-16T20:38:33.423648,14.93440136,.0143237,95.3891,255.3744,224.2523,134.7178,0,U,59067,999,12914,.12526E-3,.1574E-4,0
SITRO-AIS 27,2024-039T,2026-07-16T21:20:07.166112,14.93863678,.0142329,95.3897,255.6799,222.6580,136.3525,0,U,59068,999,12917,.11385E-3,.1441E-4,0
SITRO-AIS 28,2024-039U,2026-07-16T20:46:40.816416,14.93898772,.0142208,95.3895,255.7128,222.5900,136.4229,0,U,59071,999,12917,.12218E-3,.155E-4,0
GRBBETA,2024-128C,2026-07-16T18:03:04.939200,15.06814605,.0036838,61.9898,112.5231,141.0132,219.3628,0,U,60237,999,11072,.12847E-3,.173E-4,0
OOV-CUBE (TUBSAT-30),2024-128F,2026-07-16T19:08:10.180320,15.02877570,.0040918,61.9939,122.3151,140.3811,220.0282,0,U,60240,999,11056,.83798E-4,.932E-5,0
ROBUSTA-3A (MEDITERRANEE),2024-128J,2026-07-16T18:22:33.760992,15.12000049,.0037949,61.9864,103.6187,134.0206,226.4028,0,U,60243,999,11089,.22906E-3,.379E-4,0
LASARSAT,2024-247Q,2026-07-16T02:15:08.659008,15.48082110,.00074765,44.9739,99.5612,171.6523,188.4493,0,U,62391,999,8779,.39100475E-3,.20669E-3,0
CROCUBE,2024-247T,2026-07-16T02:50:28.918464,15.50241694,.00076811,44.9721,96.2522,178.5471,181.5444,0,U,62394,999,8783,.43575645E-3,.24938E-3,0
FORESAIL-1 PRIME,2025-276DS,2026-07-16T10:42:05.677056,15.18943971,.0002786,97.4192,270.1839,41.5942,318.5504,0,U,66778,999,3484,.10692E-3,.2166E-4,0
KNACKSAT-2,1998-067XZ,2026-07-16T09:50:21.532416,15.62488251,.0007923,51.6275,147.1984,331.8653,28.1912,0,U,67683,999,2484,.37622E-3,.3379E-3,0
