NETSAT-4                
1 46504U 20068U   26197.60611441  .00010486  00000+0  22602-3 0  9996
2 46504  97.8603 208.2321 0004915 188.4532 171.6633 15.44786977320316
NETSAT-3                
1 46505U 20068V   26197.56972757  .00011163  00000+0  24996-3 0  9993
2 46505  97.8652 206.3734 0004019 204.9315 155.1738 15.43637888320213
NETSAT-1                
1 46506U 20068W   26197.53589440  .00006909  00000+0  20440-3 0  9996
2 46506  97.8753 200.3150 0002533 254.4988 105.5974 15.35264310319808
NETSAT-2                
1 46507U 20068X   26197.86149905  .00014154  00000+0  28017-3 0  9990
2 46507  97.8614 208.5178 0002392 201.1195 158.9955 15.47210636320322
GREENCUBE (IO-117)      
1 53109U 22080E   26197.28830747 -.00000003  00000+0  00000+0 0  9996
2 53109  70.1408 288.1261 0009080 283.0875  76.8771  6.42583343 93936
SITRO-AIS 5 (KATYS)     
1 57176U 23091L   26197.83173721  .00006488  00000+0  22519-3 0  9995
2 57176  97.5042 262.0240 0010479   6.6080 353.5297 15.30086185168873
SITRO-AIS 6 (CHIRKIN)   
1 57192U 23091AC  26197.81459191  .00005189  00000+0  20163-3 0  9999
2 57192  97.5050 260.9661 0011002  10.9737 349.1739 15.26454955168808
SITRO-AIS 8 (ANOKHIN)   
1 57193U 23091AD  26197.86105935  .00008322  00000+0  26421-3 0  9994
2 57193  97.5038 263.7660 0009334   2.1281 357.9999 15.32885018168997
SITRO-AIS 7 (FARTUSHNIY)
1 57194U 23091AE  26197.82393155  .00005003  00000+0  19644-3 0  9996
2 57194  97.5046 260.7847 0010976  12.1825 347.9677 15.26128522168793
SITRO-AIS 10 (BURDAEV)  
1 57199U 23091AK  26197.82982826  .00011444  00000+0  29199-3 0  9992
2 57199  97.5065 269.1017 0004722 334.1674  25.9335 15.39665465169322
SITRO-AIS 9 (SHCHUKIN)  
1 57201U 23091AM  26197.86591140  .00011705  00000+0  30362-3 0  9999
2 57201  97.5063 268.8449 0004998 334.4028  25.6969 15.39150934169319
SITRO-AIS 12 (SMIRENNIY)
1 57204U 23091AQ  26197.85087568  .00010857  00000+0  27915-3 0  9992
2 57204  97.5077 269.3153 0004559 326.4781  33.6176 15.39446190169338
SITRO-AIS 11 (SHEFFER)  
1 57208U 23091AU  26197.85591782  .00011572  00000+0  29306-3 0  9995
2 57208  97.5075 269.5861 0004469 325.9569  34.1389 15.39890993169354
SITRO-AIS 25            
1 59066U 24039R   26197.85464649  .00001766  00000+0  13946-3 0  9990
2 59066  95.3891 255.4791 0142908 223.6520 135.3332 14.93648570129155
SITRO-AIS 26            
1 59067U 24039S   26197.86010907  .00001574  00000+0  12526-3 0  9996
2 59067  95.3891 255.3744 0143237 224.2523 134.7178 14.93440136129147
SITRO-AIS 27            
1 59068U 24039T   26197.88897183  .00001441  00000+0  11385-3 0  9993
2 59068  95.3897 255.6799 0142329 222.6580 136.3525 14.93863678129170
SITRO-AIS 28            
1 59071U 24039U   26197.86575019  .00001550  00000+0  12218-3 0  9993
2 59071  95.3895 255.7128 0142208 222.5900 136.4229 14.93898772129175
GRBBETA                 
1 60237U 24128C   26197.75214050  .00001730  00000+0  12847-3 0  9999
2 60237  61.9898 112.5231 0036838 141.0132 219.3628 15.06814605110724
OOV-CUBE (TUBSAT-30)    
1 60240U 24128F   26197.79734005  .00000932  00000+0  83798-4 0  9991
2 60240  61.9939 122.3151 0040918 140.3811 220.0282 15.02877570110567
ROBUSTA-3A (MEDITERRAN*)
1 60243U 24128J   26197.76566853  .00003790  00000+0  22906-3 0  9993
2 60243  61.9864 103.6187 0037949 134.0206 226.4028 15.12000049110890
LASARSAT                
1 62391U 24247Q   26197.09385022  .00020669  00000+0  39100-3 0  9992
2 62391  44.9739  99.5612 0007476 171.6523 188.4493 15.48082110 87798
CROCUBE                 
1 62394U 24247T   26197.11839026  .00024938  00000+0  43576-3 0  9991
2 62394  44.9721  96.2522 0007681 178.5471 181.5444 15.50241694 87834
FORESAIL-1 PRIME        
1 66778U 25276DS  26197.44589904  .00002166  00000+0  10692-3 0  9999
2 66778  97.4192 270.1839 0002786  41.5942 318.5504 15.18943971 34849
KNACKSAT-2              
1 67683U 98067XZ  26197.40997144  .00033790  00000+0  37622-3 0  9997
2 67683  51.6275 147.1984 0007923 331.8653  28.1912 15.62488251 24845
